[{"OBJECT_NAME":"STARLINK-36192","OBJECT_ID":"2025-293X","EPOCH":"2026-03-09T11:16:31.149408","MEAN_MOTION":14.98335756,"ECCENTRICITY":0.00029021,"INCLINATION":70.0008,"RA_OF_ASC_NODE":95.0593,"ARG_OF_PERICENTER":267.4893,"MEAN_ANOMALY":92.5933,"EPHEMERIS_TYPE":0,"CLASSIFICATION_TYPE":"U","NORAD_CAT_ID":67024,"ELEMENT_SET_NO":999,"REV_AT_EPOCH":1485,"BSTAR":0.00021542102,"MEAN_MOTION_DOT":2.479e-5,"MEAN_MOTION_DDOT":0},{"OBJECT_NAME":"COSMOS 1305","OBJECT_ID":"1981-088A","EPOCH":"2026-03-08T06:18:00.199584","MEAN_MOTION":5.46276903,"ECCENTRICITY":0.48979563,"INCLINATION":62.7856,"RA_OF_ASC_NODE":48.1147,"ARG_OF_PERICENTER":268.0421,"MEAN_ANOMALY":37.5939,"EPHEMERIS_TYPE":0,"CLASSIFICATION_TYPE":"U","NORAD_CAT_ID":12818,"ELEMENT_SET_NO":999,"REV_AT_EPOCH":88724,"BSTAR":0.00031195704,"MEAN_MOTION_DOT":7.9e-7,"MEAN_MOTION_DDOT":0}]
